STARLINK-35909          
1 66496U 25263M   25335.83335647 -.00036880  00000+0 -23784-3 0  9999
2 66496  42.9989 189.6912 0001646 276.6595 312.3821 15.75056168  3880
STARLINK-35899          
1 66497U 25263N   25335.83335647  .00126153  00000+0  81632-3 0  9997
2 66497  42.9989 189.6859 0001630 263.9975 327.0761 15.74920511  3882
STARLINK-35907          
1 66498U 25263P   25335.83335647  .00057690  00000+0  37651-3 0  9999
2 66498  42.9990 189.6820 0001610 263.0579 329.8261 15.75014059  3889
STARLINK-35816          
1 66499U 25263Q   25335.83335647 -.00210274  00000+0 -13920-2 0  9993
2 66499  42.9987 189.6720 0001339 263.3928 333.3817 15.75171445  3884
STARLINK-35894          
1 66500U 25263R   25335.83335647 -.00006703  00000+0 -40542-4 0  9998
2 66500  42.9989 189.6775 0002185 265.4837 329.3144 15.75045789  3880
STARLINK-35897          
1 66501U 25263S   25335.83335647  .00052614  00000+0  34366-3 0  9995
2 66501  42.9988 189.6670 0001487 273.9826 324.6413 15.75027486  3881
STARLINK-35922          
1 66502U 25263T   25335.83335647  .00065758  00000+0  42819-3 0  9991
2 66502  42.9988 189.6525 0002096 268.7591 335.6170 15.75020235  3886
STARLINK-35917          
1 66503U 25263U   25335.25002315 -.00055649  00000+0 -36092-3 0  9997
2 66503  42.9991 193.1781 0001646 272.9993 263.5677 15.75078272  3782
STARLINK-35916          
1 66504U 25263V   25335.83335647 -.02506813  00000+0 -32681-1 0  9993
2 66504  42.9987 189.9095 0001103 267.7115 233.1507 15.61543096  3887
STARLINK-34766          
1 66505U 25263W   25335.83335647  .00073155  00000+0  47569-3 0  9991
2 66505  42.9987 189.6619 0001719 261.8925 338.6563 15.75015755  3888
STARLINK-34765          
1 66506U 25263X   25335.83335647  .00096590  00000+0  62599-3 0  9990
2 66506  42.9986 189.6580 0001567 258.4845 343.9776 15.74992471  3882
STARLINK-34767          
1 66507U 25263Y   25335.83335647  .00053917  00000+0  35229-3 0  9997
2 66507  42.9986 189.6470 0001561 267.4235 338.8565 15.75011383  3882
